[{"OBJECT_NAME":"CONNECTA IOT-7","OBJECT_ID":"2025-009DL","EPOCH":"2026-03-09T17:11:16.301760","MEAN_MOTION":14.93962714,"ECCENTRICITY":0.00023003,"INCLINATION":97.7131,"RA_OF_ASC_NODE":149.3044,"ARG_OF_PERICENTER":127.5,"MEAN_ANOMALY":232.643,"EPHEMERIS_TYPE":0,"CLASSIFICATION_TYPE":"U","NORAD_CAT_ID":62715,"ELEMENT_SET_NO":999,"REV_AT_EPOCH":6249,"BSTAR":0.00016028369,"MEAN_MOTION_DOT":1.651e-5,"MEAN_MOTION_DDOT":0},{"OBJECT_NAME":"OKEAN-4","OBJECT_ID":"1994-066A","EPOCH":"2026-03-09T20:34:09.232320","MEAN_MOTION":14.96885016,"ECCENTRICITY":0.00147251,"INCLINATION":82.5373,"RA_OF_ASC_NODE":349.8556,"ARG_OF_PERICENTER":246.8531,"MEAN_ANOMALY":113.1141,"EPHEMERIS_TYPE":0,"CLASSIFICATION_TYPE":"U","NORAD_CAT_ID":23317,"ELEMENT_SET_NO":999,"REV_AT_EPOCH":70047,"BSTAR":0.00028288801,"MEAN_MOTION_DOT":3.276e-5,"MEAN_MOTION_DDOT":0}]
